     3.00           N                   E                   RINEX VERSION / TYPE
BRD_USR             ESA                 20190112 081738  UTCPGM / RUN BY / DATE
 GAL   4.0250E+01  4.2969E-02 -8.8501E-04  0.0000E+00       IONOSPHERIC CORR
GAUT  2.7939677238E-09-1.776356839E-15 518400 2035 GSTB   0 TIME SYSTEM CORR
GPGA  2.1827872843E-09 1.199040867E-14 518400 2035 GSTB   0 TIME SYSTEM CORR
                                                            END OF HEADER
E26 2019 01 12 06 10 00 5.029287596699E-03-4.331468517194E-11 0.000000000000E+00
     5.000000000000E+00 2.962500000000E+01 3.137630694913E-09 1.983602222709E+00
     1.382082700729E-06 3.193857846782E-04 3.252178430557E-06 5.440606910706E+03
     5.406000000000E+05 3.166496753693E-08-8.601245235932E-01-1.490116119385E-08
     9.782775001789E-01 2.808750000000E+02-2.006519581972E+00-5.805241811623E-09
     2.235807416067E-10 5.210000000000E+02 2.035000000000E+03 0.000000000000E+00
     3.120000000000E+00 0.000000000000E+00 1.164153218269E-09 1.164153218269E-09
     5.412850000000E+05 0.000000000000E+00 0.000000000000E+00 0.000000000000E+00
E30 2019 01 12 06 10 00 5.195223202463E-03-3.049649421882E-11 0.000000000000E+00
     5.000000000000E+00 0.000000000000E+00 2.780472960717E-09 3.063859889948E+00
    -1.862645149231E-08 3.110117977485E-04 7.336959242821E-06 5.440617315292E+03
     5.406000000000E+05-3.725290298462E-08-2.945638251302E+00-2.980232238770E-08
     9.877009264853E-01 1.967812500000E+02 5.698779749622E-01-5.471656487884E-09
    -3.103700710164E-10 5.210000000000E+02 2.035000000000E+03 0.000000000000E+00
     3.120000000000E+00 0.000000000000E+00-3.026798367500E-09-3.725290298462E-09
     5.412850000000E+05 0.000000000000E+00 0.000000000000E+00 0.000000000000E+00
E33 2019 01 12 06 10 00 8.479068637826E-04 1.136868377216E-13 0.000000000000E+00
     5.000000000000E+00 3.409375000000E+01 3.105486498835E-09 6.200526813516E-01
     1.605600118637E-06 3.682876704261E-04 3.818422555923E-06 5.440594501495E+03
     5.406000000000E+05 1.676380634308E-08-8.690706553212E-01-9.313225746155E-09
     9.851567846716E-01 2.720625000000E+02-1.434511128689E+00-5.776669192887E-09
     2.692969315838E-10 5.210000000000E+02 2.035000000000E+03 0.000000000000E+00
     3.120000000000E+00 4.550000000000E+02-8.381903171539E-09-9.546056389809E-09
     5.412850000000E+05 0.000000000000E+00 0.000000000000E+00 0.000000000000E+00
E36 2019 01 12 06 10 00 7.606453727931E-04-4.490630090004E-12 0.000000000000E+00
     5.000000000000E+00 2.712500000000E+01 3.037626529338E-09-1.633577099215E+00
     1.296401023865E-06 3.335863584653E-04 4.321336746216E-06 5.440593427658E+03
     5.406000000000E+05-4.656612873077E-08-8.690441691893E-01-1.117587089539E-08
     9.851655753463E-01 2.594375000000E+02-1.535405778351E+00-5.667736083958E-09
     2.225092684042E-10 5.210000000000E+02 2.035000000000E+03 0.000000000000E+00
     3.120000000000E+00 4.550000000000E+02 1.164153218269E-09 1.396983861923E-09
     5.412850000000E+05 0.000000000000E+00 0.000000000000E+00 0.000000000000E+00
E02 2019 01 12 06 10 00 4.298624116927E-05 1.563194018672E-12 0.000000000000E+00
     5.000000000000E+00-6.750000000000E+00 2.814045787731E-09-1.694501450536E+00
    -4.414469003677E-07 2.648801309988E-04 6.848946213722E-06 5.440616930008E+03
     5.406000000000E+05 7.450580596924E-09-2.949076865117E+00-2.793967723846E-08
     9.901569113926E-01 2.066250000000E+02-1.691185774504E-01-5.479156800302E-09
    -2.839403986859E-10 2.580000000000E+02 2.035000000000E+03 0.000000000000E+00
     3.120000000000E+00 0.000000000000E+00-6.286427378654E-09 0.000000000000E+00
     5.413000000000E+05 0.000000000000E+00 0.000000000000E+00 0.000000000000E+00
E04 2019 01 12 06 10 00-1.983132679015E-04-7.858602657507E-12 0.000000000000E+00
     5.000000000000E+00-3.228125000000E+01 3.165488998180E-09 4.901564019873E-01
    -1.603737473488E-06 7.248728070408E-05 1.226551830769E-05 5.440620910645E+03
     5.406000000000E+05 4.656612873077E-08 1.241622201017E+00 3.725290298462E-09
     9.524891217608E-01 7.362500000000E+01 2.097851996345E+00-5.535944880039E-09
     4.714482091388E-11 2.580000000000E+02 2.035000000000E+03 0.000000000000E+00
     3.120000000000E+00 0.000000000000E+00-7.916241884232E-09 0.000000000000E+00
     5.413000000000E+05 0.000000000000E+00 0.000000000000E+00 0.000000000000E+00
E07 2019 01 12 06 10 00-1.110184821300E-04-7.077005648171E-12 0.000000000000E+00
     5.000000000000E+00-2.000000000000E+00 3.145488165065E-09-1.337756399678E+00
    -1.024454832077E-07 1.351929968223E-04 1.108087599277E-05 5.440618560791E+03
     5.406000000000E+05-7.450580596924E-09 1.241571902968E+00-4.097819328308E-08
     9.524899717162E-01 1.012500000000E+02-5.367769737727E-03-5.493443109670E-09
     8.750364487804E-11 2.580000000000E+02 2.035000000000E+03 0.000000000000E+00
     3.120000000000E+00 0.000000000000E+00 2.328306436539E-10 0.000000000000E+00
     5.413000000000E+05 0.000000000000E+00 0.000000000000E+00 0.000000000000E+00
E08 2019 01 12 06 10 00 6.425073312130E-03-7.446487870766E-12 0.000000000000E+00
     5.000000000000E+00-1.887500000000E+01 3.036912213869E-09-1.015643855540E+00
    -1.000240445137E-06 2.152220113203E-04 1.063942909241E-05 5.440623804092E+03
     5.406000000000E+05 2.235174179077E-08 1.232958908408E+00 1.862645149231E-09
     9.584328160138E-01 1.123437500000E+02 4.591287126681E-01-5.489514374594E-09
     8.357490980188E-11 2.580000000000E+02 2.035000000000E+03 0.000000000000E+00
     3.120000000000E+00 0.000000000000E+00-8.614733815193E-09 0.000000000000E+00
     5.413000000000E+05 0.000000000000E+00 0.000000000000E+00 0.000000000000E+00
E09 2019 01 12 06 10 00 6.560747278854E-03-1.131184035330E-11 0.000000000000E+00
     5.000000000000E+00-4.575000000000E+01 2.925121843066E-09 1.708324386453E+00
    -2.089887857437E-06 2.388381399214E-04 1.191906630993E-05 5.440625331879E+03
     5.406000000000E+05-5.587935447693E-09 1.232956286858E+00-8.009374141693E-08
     9.584637391762E-01 8.521875000000E+01 9.008900568870E-02-5.398439152374E-09
     5.285934466102E-11 2.580000000000E+02 2.035000000000E+03 0.000000000000E+00
     3.120000000000E+00 0.000000000000E+00-3.259629011154E-09 0.000000000000E+00
     5.413000000000E+05 0.000000000000E+00 0.000000000000E+00 0.000000000000E+00
E11 2019 01 12 06 10 00 5.719618697185E-03 8.100187187665E-13 0.000000000000E+00
     5.000000000000E+00 2.993750000000E+01 3.089414400796E-09-2.036214198895E+00
     1.374632120132E-06 2.731839194894E-04 4.170462489128E-06 5.440599123001E+03
     5.406000000000E+05 2.793967723846E-08-8.637457066585E-01-8.754432201385E-08
     9.819189241788E-01 2.592812500000E+02-3.528067978535E-01-5.777026350622E-09
     2.471531520637E-10 2.580000000000E+02 2.035000000000E+03 0.000000000000E+00
     3.120000000000E+00 0.000000000000E+00-1.839362084866E-08 0.000000000000E+00
     5.413000000000E+05 0.000000000000E+00 0.000000000000E+00 0.000000000000E+00
E14 2019 01 12 06 10 00 6.461149547249E-03-5.641709321935E-12 0.000000000000E+00
     5.000000000000E+00 1.431562500000E+02 5.176644199438E-09-2.446614663961E+00
     6.776303052902E-06 1.662687649950E-01 1.914799213409E-06 5.289376970291E+03
     5.406000000000E+05 3.587454557419E-06-1.465526699195E+00 1.043081283569E-06
     8.826307297298E-01 2.681250000000E+02 1.456955832287E+00-6.399552281325E-09
     2.007226466182E-10 2.580000000000E+02 2.035000000000E+03 0.000000000000E+00
     3.120000000000E+00 5.600000000000E+01 3.306195139885E-08 0.000000000000E+00
     5.413000000000E+05 0.000000000000E+00 0.000000000000E+00 0.000000000000E+00
E18 2019 01 12 06 10 00 5.612569861114E-03-2.846434199455E-11 0.000000000000E+00
     5.000000000000E+00-1.781250000000E+01 3.335496079657E-09 6.645216927044E-01
    -2.162531018257E-06 1.663106470369E-01 7.253140211105E-06 5.289370777130E+03
     5.406000000000E+05 2.037733793259E-06-1.448431749499E+00-5.839392542839E-06
     8.818308470858E-01 2.070625000000E+02 1.441607131329E+00-4.974135764149E-09
     1.214693454001E-09 2.580000000000E+02 2.035000000000E+03 0.000000000000E+00
     3.120000000000E+00 5.600000000000E+01 1.420266926289E-08 0.000000000000E+00
     5.413000000000E+05 0.000000000000E+00 0.000000000000E+00 0.000000000000E+00
E19 2019 01 12 06 10 00-9.184528607875E-06 3.410605131648E-13 0.000000000000E+00
     5.000000000000E+00-1.509375000000E+01 3.062270412997E-09 1.074192212852E+00
    -7.227063179016E-07 1.322075258940E-04 1.198239624500E-05 5.440624013901E+03
     5.406000000000E+05 3.725290298462E-08 1.238310689914E+00 2.421438694000E-08
     9.582180055118E-01 8.068750000000E+01 2.374413180411E+00-5.510943838646E-09
     1.117903708034E-10 2.580000000000E+02 2.035000000000E+03 0.000000000000E+00
     3.120000000000E+00 0.000000000000E+00-8.614733815193E-09 0.000000000000E+00
     5.413000000000E+05 0.000000000000E+00 0.000000000000E+00 0.000000000000E+00
E24 2019 01 12 06 10 00 6.290323100984E-03-1.971045548999E-11 0.000000000000E+00
     5.000000000000E+00-4.125000000000E+00 2.859761977708E-09-7.903044907371E-01
    -1.043081283569E-07 4.804192576557E-04 6.832182407379E-06 5.440610687256E+03
     5.406000000000E+05-2.421438694000E-08-2.945582727710E+00-3.166496753693E-08
     9.877167976835E-01 2.049375000000E+02 4.945538167001E-01-5.553088451281E-09
    -3.025126008641E-10 2.580000000000E+02 2.035000000000E+03 0.000000000000E+00
     3.120000000000E+00 0.000000000000E+00 4.284083843231E-08 0.000000000000E+00
     5.413000000000E+05 0.000000000000E+00 0.000000000000E+00 0.000000000000E+00
